[Satellite]
VERSION=1.1
NAME=LUSAT (LO-19)
NICKNAME=LO-19
TLE1=1 20442U 90005G   17186.23017805 -.00000010  00000-0  12518-4 0  9998
TLE2=2 20442  98.5760 122.5616 0012986  93.9500 266.3169 14.32863360434149
